[{"OBJECT_NAME":"STARLINK-31700","OBJECT_ID":"2024-065R","EPOCH":"2026-03-09T21:31:21.334080","MEAN_MOTION":15.30222279,"ECCENTRICITY":0.00012843,"INCLINATION":53.1591,"RA_OF_ASC_NODE":280.5326,"ARG_OF_PERICENTER":68.3922,"MEAN_ANOMALY":291.7215,"EPHEMERIS_TYPE":0,"CLASSIFICATION_TYPE":"U","NORAD_CAT_ID":59436,"ELEMENT_SET_NO":999,"REV_AT_EPOCH":10896,"BSTAR":0.00043421869,"MEAN_MOTION_DOT":0.00012532,"MEAN_MOTION_DDOT":0},{"OBJECT_NAME":"ELECTRON KICK STAGE R\/B","OBJECT_ID":"2025-061J","EPOCH":"2026-03-09T21:50:35.145600","MEAN_MOTION":15.31602074,"ECCENTRICITY":0.00402669,"INCLINATION":97.5479,"RA_OF_ASC_NODE":52.3854,"ARG_OF_PERICENTER":150.2628,"MEAN_ANOMALY":210.0914,"EPHEMERIS_TYPE":0,"CLASSIFICATION_TYPE":"U","NORAD_CAT_ID":63359,"ELEMENT_SET_NO":999,"REV_AT_EPOCH":5306,"BSTAR":0.0006963674,"MEAN_MOTION_DOT":0.00021749,"MEAN_MOTION_DDOT":0}]
